#aV2013 10 30  0  0  0.00000000     288 DD+AD WGS84 FIT  NGA
## 1764 259200.00000000   300.00000000 56595 0.0000000000000
+   31     1  2  3  4  5  6  7  8  9 10 11 12 13 14 15 16 17
+         18 19 20 21 22 23 24 25 26 27 28 29 31 32  0  0  0
+          0  0  0  0  0  0  0  0  0  0  0  0  0  0  0  0  0
+          0  0  0  0  0  0  0  0  0  0  0  0  0  0  0  0  0
+          0  0  0  0  0  0  0  0  0  0  0  0  0  0  0  0  0
++         2  2  2  2  2  2  2  2  2  2  2  2  2  2  2  2  2
++         2  2  2  2  2  2  2  2  2  2  2  2  2  2  2  0  0
++         0  0  0  0  0  0  0  0  0  0  0  0  0  0  0  0  0
++         0  0  0  0  0  0  0  0  0  0  0  0  0  0  0  0  0
++         0  0  0  0  0  0  0  0  0  0  0  0  0  0  0  0  0
%c cc cc ccc ccc cccc cccc cccc cccc ccccc ccccc ccccc ccccc
%c cc cc ccc ccc cccc cccc cccc cccc ccccc ccccc ccccc ccccc
%f  0.0000000  0.000000000  0.00000000000  0.000000000000000
%f  0.0000000  0.000000000  0.00000000000  0.000000000000000
%i    0    0    0    0      0      0      0      0         0
%i    0    0    0    0      0      0      0      0         0
/*      NGA, ST. LOUIS,MO.                                  
/*   EPHEMERIS COMPUTED FROM  1 DAYS OF DATA
/*   EPOCHA SMOOTHER  
/* CCCCCCCCCCCCCCCCCCCCCCCCCCCCCCCCCCCCCCCCCCCCCCCCCCCCCCCCC
*  2013 10 30  6  0  0.00000000                                                 
P  1 -22345.880828 -13795.748590  -4386.061498     89.654690                    
V  1   6129.853301   -105.926628 -31023.111984      0.034669                    
P  2   2993.185225  17427.499252  20187.470062    458.466831                    
V  2 -23360.898519  -9133.890839  10976.789431      0.021140                    
P  3    450.199538 -19379.353138 -18621.394746    279.308025                    
V  3  17679.570805 -14356.445355  16010.314469      0.050116                    
P  4 -12390.776049  10918.455991  20542.515458      2.591192                    
V  4 -24063.984623 -11859.961443  -7835.831194      0.002882                    
P  5   1889.725224  26393.557397    826.010637   -398.379413                    
V  5  -3434.540150   -777.162588  31557.351630      0.005110                    
P  6   8368.477632 -20360.506789 -14525.026776    126.132429                    
V  6  16313.259724  -9640.388587  23206.305604      0.177303                    
P  7 -24371.702723  -4398.844235  -9964.334186    275.095049                    
V  7 -10506.572745  -7248.371552  28396.443080      0.041573                    
P  8 -18849.836147   2572.412046 -18658.974961      9.510610                    
V  8 -19870.174622 -12883.875373  17574.233726      0.003169                    
P  9 -18386.122058   5423.745627 -18974.111902    279.273743                    
V  9 -20396.894743 -10427.196277  17140.740027      0.029019                    
P 10 -10004.189706  18478.768729  15672.499140    -99.737078                    
V 10  -4198.560442 -20438.680322  21420.880893     -0.013559                    
P 11 -18668.492957 -13638.827372 -13750.452125   -433.299853                    
V 11  17136.574859  -1321.209269 -22503.408214     -0.033956                    
P 12  10943.501889  19155.875454  14894.460343    165.062636                    
V 12   -320.611346  18910.594567 -23809.865524      0.022309                    
P 13 -22969.381436   2864.839713  13023.598364     65.004837                    
V 13  13685.684971  -9659.869217  25863.323641     -0.038649                    
P 14  21166.732730 -15558.207733   3545.219577    212.036762                    
V 14   4942.587649    -22.994794 -31684.475194     -0.010272                    
P 15  10405.069006  11802.368809 -21436.381749   -144.526337                    
V 15 -21707.986693  16426.758057  -1222.991448     -0.019392                    
P 16   -553.100152 -26360.016312    646.474894   -243.207513                    
V 16   2312.179641    777.595693  32530.680084      0.009786                    
P 17 -21138.808534  15700.561145   2490.075992    -35.922753                    
V 17  -3968.956850   -790.748457 -31829.702086     -0.036604                    
P 18  15622.921298  -1904.644099 -20966.809396    282.126830                    
V 18   2851.184892  27613.914335   -713.069135      0.020732                    
P 19  -6828.218904 -13604.421250 -21873.908336   -414.972450                    
V 19  23973.549269 -13464.237333   1313.859339     -0.026881                    
P 20 -14656.502475 -14652.880925  16471.024915    133.067792                    
V 20   -742.198542 -21456.897960 -19454.903006      0.028079                    
P 21  23950.000808   1761.864247 -11275.132517   -326.027003                    
V 21  12494.679077   8979.097197  26062.553614     -0.018542                    
P 22  12003.981689 -15403.520582 -17739.119847    192.385590                    
V 22   4392.161873  22793.391591 -16780.178317      0.021541                    
P 23 -17136.370977  -5258.777474  19816.244120     34.723671                    
V 23  19890.375099 -14953.465196  12895.518470     -0.034063                    
P 24  19953.790385  15458.133858  -8366.518759    -16.448769                    
V 24 -10752.561542  -1958.651285 -29217.016555     -0.007111                    
P 25  14965.848315   5633.019352  21168.933842    162.165386                    
V 25   1985.765160  26881.646825  -8435.616778      0.034240                    
P 26  -4192.918304  17788.974118 -19800.052864    262.983196                    
V 26 -21222.729639  10887.932680  15072.165805     -0.102480                    
P 27   5741.523808 -19105.240975 -17537.510954    -53.120744                    
V 27  19111.282686 -11524.324992  18836.964818     -0.038633                    
P 28 -12592.698398  11825.776910 -19529.794604    304.661477                    
V 28  -1940.848945 -26052.950563 -14265.710563      0.029885                    
P 29  21021.392773    -51.268358  16248.977194    482.982794                    
V 29 -16425.796070  12495.549272  21374.078842      0.029919                    
P 31  10189.200877 -11379.164336  21929.412219    328.803682                    
V 31  24413.931628  12317.338874  -4709.710062      0.006785                    
P 32  -7429.991255 -23710.690378  10200.261501   -535.286731                    
V 32   2317.102650 -12668.522855 -27490.115959      0.040681                    
EOF
